STARLINK-30494          
1 57970U 23151G   26068.36049035 -.00001272  00000+0 -35691-4 0  9993
2 57970  43.0027 192.4566 0001155 241.5536 118.5200 15.28417441137406
STARLINK-36493          
1 67456U 26008M   26068.42628467  .00035696  00000+0  12998-2 0  9994
2 67456  43.0004 206.5646 0002207 280.1015  79.9588 15.27594532  9534
